[{"OBJECT_NAME":"STARLINK-35622","OBJECT_ID":"2025-236T","EPOCH":"2026-03-09T11:54:58.350816","MEAN_MOTION":15.30199382,"ECCENTRICITY":0.00012826,"INCLINATION":53.1592,"RA_OF_ASC_NODE":104.8678,"ARG_OF_PERICENTER":57.9263,"MEAN_ANOMALY":302.1862,"EPHEMERIS_TYPE":0,"CLASSIFICATION_TYPE":"U","NORAD_CAT_ID":66103,"ELEMENT_SET_NO":999,"REV_AT_EPOCH":2291,"BSTAR":0.0010900218,"MEAN_MOTION_DOT":0.00032063,"MEAN_MOTION_DDOT":0},{"OBJECT_NAME":"CZ-4B DEB","OBJECT_ID":"2006-015E","EPOCH":"2026-03-09T20:34:53.082912","MEAN_MOTION":15.19885806,"ECCENTRICITY":0.00461993,"INCLINATION":98.0565,"RA_OF_ASC_NODE":201.7753,"ARG_OF_PERICENTER":62.4887,"MEAN_ANOMALY":298.1031,"EPHEMERIS_TYPE":0,"CLASSIFICATION_TYPE":"U","NORAD_CAT_ID":29538,"ELEMENT_SET_NO":999,"REV_AT_EPOCH":5389,"BSTAR":0.0022587151,"MEAN_MOTION_DOT":0.00050103,"MEAN_MOTION_DDOT":0}]
